495P/Christensen,e,26.3550,291.6134,141.3387,4.771155,0.0945734,0.27489246,17.3620,04/24.0/2026,2000,g 11.5,4.0
# From MPC191640
496P/Hill,e,14.8132,63.5889,42.2630,6.100588,0.0654104,0.73420111,26.7998,04/24.0/2026,2000,g 14.0,4.0
# From MPC191640
497P/Spacewatch-PANSTARRS,e,10.4376,40.3567,32.3773,5.608136,0.0742124,0.63006067,32.1207,04/24.0/2026,2000,g 17.5,4.0
# From MPC191640
498P/LINEAR,e,14.4827,279.2305,179.1067,4.593627,0.1001084,0.57222835,49.1612,04/24.0/2026,2000,g 14.7,4.0
# From MPC191640
500P/PANSTARRS,e,2.3015,111.5263,46.7268,3.416983,0.1560414,0.37602641,60.5355,04/24.0/2026,2000,g 16.0,4.0
# From MPC191640
502P/NEAT,e,11.3989,264.4784,37.7110,7.993276,0.0436131,0.47089747,11.4347,04/24.0/2026,2000,g  8.5,4.0
# From MPC191640
503P/PANSTARRS,e,10.5746,268.5800,17.9339,3.657561,0.1409018,0.48126830,23.8794,04/24.0/2026,2000,g 15.0,4.0
# From MPC191641
504P/WISE-PANSTARRS,e,8.8056,221.1165,308.5564,3.745785,0.1359533,0.40619858,51.6448,04/24.0/2026,2000,g 14.3,4.0
# From MPC191641
505P/Palomar,e,11.3883,111.9417,143.9398,4.113806,0.1181241,0.31083395,11.3869,04/24.0/2026,2000,g 14.9,4.0
# From MPC191641
506P/WISE-LINEAR,e,13.6587,325.5877,354.6969,5.587578,0.0746223,0.48175308,72.5200,04/24.0/2026,2000,g 12.7,4.0
# From MPC191641
507P/Lemmon,e,17.0742,233.0211,107.7757,6.204455,0.0637747,0.56811255,79.1691,04/24.0/2026,2000,g 12.6,4.0
# From MPC191641
508P/McNaught,e,31.7329,268.8273,338.8656,3.574367,0.1458497,0.56941420,41.8245,04/24.0/2026,2000,g 16.5,4.0
# From MPEC 2026-FR0
509P/Catalina,e,8.5997,275.2106,180.0431,7.061206,0.0525274,0.47700509,1.8661,04/24.0/2026,2000,g 10.0,4.0
# From MPC191641
510P/Boattini,e,8.2271,280.6609,86.6910,6.481103,0.0597352,0.24777639,351.7430,04/24.0/2026,2000,g  9.5,4.0
# From MPEC 2026-E43
511P/PANSTARRS,e,14.7848,271.0284,81.2677,3.010572,0.1886820,0.23725099,54.1215,04/24.0/2026,2000,g 17.1,4.0
# From MPC191641
512P/PANSTARRS,e,12.5691,73.7352,308.7317,5.696550,0.0724913,0.15712416,343.6825,04/24.0/2026,2000,g 10.0,4.0
# From MPC191641
513P/Broughton,e,21.3853,56.9971,304.8826,7.254693,0.0504401,0.55147179,15.8467,04/24.0/2026,2000,g 11.0,4.0
# From MPEC 2026-E44
514P/Lemmon-PANSTARRS,e,6.5051,321.6004,89.4719,4.550143,0.1015468,0.36020453,15.3250,04/24.0/2026,2000,g 14.0,4.0
# From MPC107687
1I/`Oumuamua,h,09/09.4886/2017,122.6778,24.5997,241.6845,1.199252,0.255240,2000,23.0,2.0
# From MPEC 2025-R69
2I/Borisov,h,12/09.0572/2019,44.2624,307.8024,209.2911,3.345952,1.997724,2000,11.0,4.0
# From MPEC 2026-G41
3I/ATLAS,h,10/29.4825/2025,175.1129,322.1535,128.0055,6.139884,1.356507,2000,11.8,4.0
